[{"OBJECT_NAME":"STARLINK-32567","OBJECT_ID":"2024-207U","EPOCH":"2026-03-09T23:14:47.109120","MEAN_MOTION":15.27586264,"ECCENTRICITY":6.466e-5,"INCLINATION":42.9999,"RA_OF_ASC_NODE":276.7809,"ARG_OF_PERICENTER":254.6199,"MEAN_ANOMALY":105.4581,"EPHEMERIS_TYPE":0,"CLASSIFICATION_TYPE":"U","NORAD_CAT_ID":61930,"ELEMENT_SET_NO":999,"REV_AT_EPOCH":7539,"BSTAR":0.00089892393,"MEAN_MOTION_DOT":0.00024561,"MEAN_MOTION_DDOT":0},{"OBJECT_NAME":"FLOCK 4G-17","OBJECT_ID":"2025-009CA","EPOCH":"2026-03-09T22:51:51.984864","MEAN_MOTION":15.27385439,"ECCENTRICITY":0.00036407,"INCLINATION":97.3966,"RA_OF_ASC_NODE":151.0229,"ARG_OF_PERICENTER":339.6132,"MEAN_ANOMALY":20.4962,"EPHEMERIS_TYPE":0,"CLASSIFICATION_TYPE":"U","NORAD_CAT_ID":62681,"ELEMENT_SET_NO":999,"REV_AT_EPOCH":12139,"BSTAR":0.00053710713,"MEAN_MOTION_DOT":0.00014342,"MEAN_MOTION_DDOT":0}]
